     2              NAVIGATION DATA                         RINEX VERSION / TYPE
CCRINEXN V1.6.0 UX  CDDIS               23-JUL-00 20:26     PGM / RUN BY / DATE 
BROADCAST EPHEMERIS FILE USED FOR TESTING BASED ON ARTICLE: COMMENT
 Remondi, B. W. (2004): Computing Satellite Velocity using  COMMENT
   the Broadcast Ephemeris, GPS Solutions, Volume 8,        COMMENT
   Number 2                                                 COMMENT
    0.1118D-07  0.2235D-07 -0.5960D-07 -0.1192D-06          ION ALPHA           
    0.1065D+06  0.1475D+06 -0.6554D+05 -0.3277D+06          ION BETA            
    0.558793544769D-08 0.106581410364D-13   589824     1123 DELTA-UTC: A0,A1,T,W
    13                                                      LEAP SECONDS        
                                                            END OF HEADER 
20 01  7 23  2  0  0.0 -.857324339449D-04 -.272848410532D-11  .000000000000D+00
     .200000000000D+02  .886875000000D+02  .465376527657D-08  .105827953357D+01
     .457651913166D-05  .223578442819D-02  .177137553692D-05  .515379589081D+04
     .936000000000D+05  .651925802231D-07  .164046615454D+01 -.856816768646D-07
     .961685061380D+00  .344968750000D+03  .206374037770D+01 -.856928551657D-08
     .342514267094D-09  .000000000000D+00  .112400000000D+04  .000000000000D+00
     .200000000000D+01  .000000000000D+00 -.651925802231D-08  .276000000000D+03
     .865800000000D+05  .000000000000D+00  .000000000000D+00  .000000000000D+00
